NORAD_CAT_ID,OBJECT_NAME,OBJECT_TYPE,EPOCH,MEAN_MOTION,ECCENTRICITY,INCLINATION,RA_OF_ASC_NODE,ARG_OF_PERICENTER,MEAN_ANOMALY,BSTAR,MEAN_MOTION_DOT,MEAN_MOTION_DDOT,TLE_LINE0,TLE_LINE1,TLE_LINE2,SEMIMAJOR_AXIS,PERIOD,APOGEE,PERIGEE,DECAYED
53721.0,STARLINK-4707,PAYLOAD,2024-06-27 16:01:18,15.08840679,0.0001442,53.2159,157.3459,86.919,273.1967,6.5835e-05,7.6e-06,0.0,0 STARLINK-4707,1 53721U 22107X   24179.66757610  .00000760  00000-0  65835-4 0  9995,2 53721  53.2159 157.3459 0001442  86.9190 273.1967 15.08840679100816,6917.878,95.438,540.741,538.746,0.0
53721.0,STARLINK-4707,PAYLOAD,2024-06-28 04:44:23,15.08847233,0.0001405,53.2158,154.9649,94.8151,265.3002,6.9884e-05,8.25e-06,0.0,0 STARLINK-4707,1 53721U 22107X   24180.19749142  .00000825  00000-0  69884-4 0  9996,2 53721  53.2158 154.9649 0001405  94.8151 265.3002 15.08847233100437,6917.858,95.437,540.695,538.751,0.0
53721.0,STARLINK-4707,PAYLOAD,2024-06-29 04:35:06,15.0889187,0.0001165,53.2142,150.5051,99.1663,260.9461,0.00047755,7.331e-05,0.0,0 STARLINK-4707,1 53721U 22107X   24181.19105049  .00007331  00000-0  47755-3 0  9990,2 53721  53.2142 150.5051 0001165  99.1663 260.9461 15.08891870100580,6917.722,95.434,540.393,538.781,0.0
53721.0,STARLINK-4707,PAYLOAD,2024-06-29 07:45:55,15.08856054,0.000126,53.214,149.9104,93.0681,267.0455,0.000158,2.229e-05,0.0,0 STARLINK-4707,1 53721U 22107X   24181.32355910  .00002229  00000-0  15800-3 0  9996,2 53721  53.2140 149.9104 0001260  93.0681 267.0455 15.08856054100607,6917.831,95.437,540.568,538.825,0.0
53721.0,STARLINK-4707,PAYLOAD,2024-06-29 22:04:25,15.08831735,0.0001377,53.2148,147.234,92.7384,267.3766,-4.0574e-05,-9.33e-06,0.0,0 STARLINK-4707,1 53721U 22107X   24181.91974264 -.00000933  00000-0 -40574-4 0  9999,2 53721  53.2148 147.2340 0001377  92.7384 267.3766 15.08831735101151,6917.906,95.438,540.723,538.818,0.0
53721.0,STARLINK-4707,PAYLOAD,2024-06-30 04:25:58,15.08830591,0.0001306,53.2156,146.0441,89.7191,270.3951,-5.0775e-05,-1.096e-05,0.0,0 STARLINK-4707,1 53721U 22107X   24182.18470482 -.00001096  00000-0 -50775-4 0  9997,2 53721  53.2156 146.0441 0001306  89.7191 270.3951 15.08830591100735,6917.909,95.438,540.678,538.871,0.0
53721.0,STARLINK-4707,PAYLOAD,2024-07-01 04:16:47,15.08804076,0.000117,53.2152,141.5835,96.0173,264.0952,8.6122e-05,1.082e-05,0.0,0 STARLINK-4707,1 53721U 22107X   24183.17832222  .00001082  00000-0  86122-4 0  9999,2 53721  53.2152 141.5835 0001170  96.0173 264.0952 15.08804076100884,6917.99,95.44,540.665,539.046,0.0
53721.0,STARLINK-4707,PAYLOAD,2024-07-01 13:49:06,15.08813999,0.0001152,53.2162,139.8027,100.0723,260.0399,9.526e-05,1.228e-05,0.0,0 STARLINK-4707,1 53721U 22107X   24183.57576403  .00001228  00000-0  95260-4 0  9994,2 53721  53.2162 139.8027 0001152 100.0723 260.0399 15.08813999101409,6917.96,95.439,540.622,539.028,0.0
53721.0,STARLINK-4707,PAYLOAD,2024-07-01 21:46:01,15.08824975,0.0001379,53.2162,138.3138,91.2484,268.8666,0.00014891,2.082e-05,0.0,0 STARLINK-4707,1 53721U 22107X   24183.90695799  .00002082  00000-0  14891-3 0  9990,2 53721  53.2162 138.3138 0001379  91.2484 268.8666 15.08824975101456,6917.926,95.439,540.745,538.837,0.0
53721.0,STARLINK-4707,PAYLOAD,2024-07-02 04:07:33,15.08836652,0.0001461,53.2149,137.1251,91.4423,268.6736,0.00031482,4.725e-05,0.0,0 STARLINK-4707,1 53721U 22107X   24184.17191615  .00004725  00000-0  31482-3 0  9999,2 53721  53.2149 137.1251 0001461  91.4423 268.6736 15.08836652101036,6917.891,95.438,540.766,538.745,0.0
53721.0,STARLINK-4707,PAYLOAD,2024-07-02 13:39:52,15.08846252,0.0001532,53.2153,135.3404,88.6341,271.4827,0.00045422,6.95e-05,0.0,0 STARLINK-4707,1 53721U 22107X   24184.56935554  .00006950  00000-0  45422-3 0  9991,2 53721  53.2153 135.3404 0001532  88.6341 271.4827 15.08846252101554,6917.861,95.437,540.786,538.666,0.0
53721.0,STARLINK-4707,PAYLOAD,2024-07-02 20:01:24,15.08848677,0.0001567,53.2153,134.1513,91.0953,269.0219,0.00059781,9.241e-05,0.0,0 STARLINK-4707,1 53721U 22107X   24184.83431620  .00009241  00000-0  59781-3 0  9995,2 53721  53.2153 134.1513 0001567  91.0953 269.0219 15.08848677101592,6917.854,95.437,540.803,538.635,0.0
53721.0,STARLINK-4707,PAYLOAD,2024-07-03 03:58:19,15.08868476,0.0001566,53.215,132.6645,93.2989,266.8182,0.00071332,0.00011092,0.0,0 STARLINK-4707,1 53721U 22107X   24185.16550801  .00011092  00000-0  71332-3 0  9998,2 53721  53.2150 132.6645 0001566  93.2989 266.8182 15.08868476101188,6917.793,95.436,540.742,538.575,0.0
53721.0,STARLINK-4707,PAYLOAD,2024-07-03 13:30:38,15.08861951,0.0001592,53.2145,130.8799,85.3269,274.7905,0.00049228,7.56e-05,0.0,0 STARLINK-4707,1 53721U 22107X   24185.56294601  .00007560  00000-0  49228-3 0  9999,2 53721  53.2145 130.8799 0001592  85.3269 274.7905 15.08861951101243,6917.813,95.436,540.78,538.577,0.0
53721.0,STARLINK-4707,PAYLOAD,2024-07-04 03:49:06,15.0884913,0.0001138,53.2138,128.2025,89.5323,270.58,0.0012698,0.00019984,0.0,0 STARLINK-4707,1 53721U 22107X   24186.15910460  .00019984  00000-0  12698-2 0  9996,2 53721  53.2138 128.2025 0001138  89.5323 270.5800 15.08849130101334,6917.852,95.437,540.505,538.93,0.0
53721.0,STARLINK-4707,PAYLOAD,2024-07-04 13:21:25,15.08839732,0.0001827,53.2138,126.4174,85.826,274.2941,0.00070702,0.00010982,0.0,0 STARLINK-4707,1 53721U 22107X   24186.55654958  .00010982  00000-0  70702-3 0  9997,2 53721  53.2138 126.4174 0001827  85.8260 274.2941 15.08839732101854,6917.881,95.438,541.01,538.482,0.0
53721.0,STARLINK-4707,PAYLOAD,2024-07-04 19:42:58,15.08849032,0.000157,53.2135,125.2301,83.5825,276.5346,0.00080227,0.00012506,0.0,0 STARLINK-4707,1 53721U 22107X   24186.82150755  .00012506  00000-0  80227-3 0  9990,2 53721  53.2135 125.2301 0001570  83.5825 276.5346 15.08849032101439,6917.853,95.437,540.804,538.632,0.0
53721.0,STARLINK-4707,PAYLOAD,2024-07-05 13:12:12,15.08845546,0.0001214,53.2136,121.9552,118.4859,241.6256,0.00043891,6.705e-05,0.0,0 STARLINK-4707,1 53721U 22107X   24187.55014399  .00006705  00000-0  43891-3 0  9994,2 53721  53.2136 121.9552 0001214 118.4859 241.6256 15.08845546102004,6917.863,95.437,540.568,538.889,0.0
53721.0,STARLINK-4707,PAYLOAD,2024-07-06 01:55:17,15.08841599,0.00012,53.2163,119.5773,104.8459,255.2666,0.00014549,2.028e-05,0.0,0 STARLINK-4707,1 53721U 22107X   24188.08006525  .00002028  00000-0  14549-3 0  9997,2 53721  53.2163 119.5773 0001200 104.8459 255.2666 15.08841599101629,6917.876,95.437,540.571,538.91,0.0
53721.0,STARLINK-4707,PAYLOAD,2024-07-06 14:38:22,15.08839354,0.000127,53.2146,117.1987,109.4467,250.6663,9.7439e-05,1.263e-05,0.0,0 STARLINK-4707,1 53721U 22107X   24188.60998615  .00001263  00000-0  97439-4 0  9995,2 53721  53.2146 117.1987 0001270 109.4467 250.6663 15.08839354102160,6917.882,95.438,540.626,538.869,0.0
53721.0,STARLINK-4707,PAYLOAD,2024-07-06 22:35:18,15.08837057,0.0001326,53.2155,115.7141,96.7934,263.3209,3.2234e-05,2.25e-06,0.0,0 STARLINK-4707,1 53721U 22107X   24188.94118945  .00000225  00000-0  32234-4 0  9991,2 53721  53.2155 115.7141 0001326  96.7934 263.3209 15.08837057102216,6917.889,95.438,540.672,538.837,0.0
53721.0,STARLINK-4707,PAYLOAD,2024-07-07 04:56:50,15.08844291,0.0001361,53.2157,114.523,95.5397,264.5751,5.2219e-05,5.43e-06,0.0,0 STARLINK-4707,1 53721U 22107X   24189.20614527  .00000543  00000-0  52219-4 0  9996,2 53721  53.2157 114.5230 0001361  95.5397 264.5751 15.08844291101798,6917.867,95.437,540.674,538.791,0.0
53721.0,STARLINK-4707,PAYLOAD,2024-07-07 19:15:19,15.08837922,0.0001477,53.2153,111.8457,100.8374,259.2784,5.2788e-05,5.52e-06,0.0,0 STARLINK-4707,1 53721U 22107X   24189.80231006  .00000552  00000-0  52788-4 0  9990,2 53721  53.2153 111.8457 0001477 100.8374 259.2784 15.08837922101888,6917.887,95.438,540.774,538.73,0.0
53721.0,STARLINK-4707,PAYLOAD,2024-07-08 11:09:10,15.08840479,0.0001445,53.2155,108.8726,98.9945,261.1211,7.7578e-05,9.47e-06,0.0,0 STARLINK-4707,1 53721U 22107X   24190.46470840  .00000947  00000-0  77578-4 0  9997,2 53721  53.2155 108.8726 0001445  98.9945 261.1211 15.08840479102442,6917.879,95.438,540.744,538.744,0.0
53721.0,STARLINK-4707,PAYLOAD,2024-07-08 22:16:52,15.08841124,0.0001591,53.2165,106.792,101.2366,258.8805,0.00012741,1.74e-05,0.0,0 STARLINK-4707,1 53721U 22107X   24190.92838902  .00001740  00000-0  12741-3 0  9997,2 53721  53.2165 106.7920 0001591 101.2366 258.8805 15.08841124102511,6917.877,95.437,540.843,538.641,0.0
53721.0,STARLINK-4707,PAYLOAD,2024-07-09 01:27:39,15.0884484,0.0001468,53.2172,106.2032,96.3583,263.7577,0.00017622,2.518e-05,0.0,0 STARLINK-4707,1 53721U 22107X   24191.06086811  .00002518  00000-0  17622-3 0  9994,2 53721  53.2172 106.2032 0001468  96.3583 263.7577 15.08844840102076,6917.866,95.437,540.746,538.715,0.0
53721.0,STARLINK-4707,PAYLOAD,2024-07-09 10:59:57,15.0884263,0.0001467,53.2162,104.4166,91.5865,268.5296,4.2114e-05,3.82e-06,0.0,0 STARLINK-4707,1 53721U 22107X   24191.45830717  .00000382  00000-0  42114-4 0  9991,2 53721  53.2162 104.4166 0001467  91.5865 268.5296 15.08842630102595,6917.872,95.437,540.752,538.722,0.0
53721.0,STARLINK-4707,PAYLOAD,2024-07-09 22:07:40,15.08829847,0.0001401,53.2166,102.3314,80.0927,280.0224,-0.00012472,-2.272e-05,0.0,0 STARLINK-4707,1 53721U 22107X   24191.92199546 -.00002272  00000-0 -12472-3 0  9996,2 53721  53.2166 102.3314 0001401  80.0927 280.0224 15.08829847102664,6917.911,95.438,540.746,538.807,0.0
53721.0,STARLINK-4707,PAYLOAD,2024-07-10 01:18:27,15.0883261,0.0001259,53.217,101.7381,83.1785,276.9351,-8.3215e-06,-4.2e-06,0.0,0 STARLINK-4707,1 53721U 22107X   24192.05447959 -.00000420  00000-0 -83215-5 0  9993,2 53721  53.2170 101.7381 0001259  83.1785 276.9351 15.08832610102222,6917.903,95.438,540.639,538.897,0.0
53721.0,STARLINK-4707,PAYLOAD,2024-07-10 10:50:45,15.08837163,0.0001444,53.2171,99.9562,89.8597,270.2561,-5.6381e-05,-1.185e-05,0.0,0 STARLINK-4707,1 53721U 22107X   24192.45191349 -.00001185  00000-0 -56381-4 0  9998,2 53721  53.2171  99.9562 0001444  89.8597 270.2561 15.08837163102286,6917.889,95.438,540.753,538.755,0.0
